start=new Date('2022-05-20T00:00:00.000Z').valueOf();
sats=[{"FILE":"3454111","EPOCH":"2022-05-20T06:00:00.999648","INCLINATION":"53.2146","SEMIMAJOR_AXIS":"6727.788","MEAN_ELEMENT_THEORY":"SGP4","MEAN_MOTION":"15.73237463","GP_ID":"203998392","ECCENTRICITY":"0.00009910","CENTER_NAME":"EARTH","TIME_SYSTEM":"UTC","RCS_SIZE":"LARGE","ELEMENT_SET_NO":"999","MEAN_MOTION_DDOT":"0.0000000000000","COUNTRY_CODE":"US","OBJECT_TYPE":"PAYLOAD","APOAPSIS":"350.320","LAUNCH_DATE":"2022-04-29","RA_OF_ASC_NODE":"335.4853","DECAY_DATE":null,"REF_FRAME":"TEME","PERIAPSIS":"348.987","CLASSIFICATION_TYPE":"U","BSTAR":"-0.00010869000000","ARG_OF_PERICENTER":"79.4187","REV_AT_EPOCH":"575","OBJECT_NAME":"STARLINK-3816","PERIOD":"91.531","MEAN_ANOMALY":"74.8550","MEAN_MOTION_DOT":"-0.00015869","NORAD_CAT_ID":"52351","SITE":"AFETR","TLE_LINE1":"1 52351U 22045W   22140.25001157 -.00015869  00000-0 -10869-3 0  9997","TLE_LINE2":"2 52351  53.2146 335.4853 0000991  79.4187  74.8550 15.73237463  5752","OBJECT_ID":"2022-045W","EPHEMERIS_TYPE":"0"},{"REF_FRAME":"TEME","PERIAPSIS":"349.083","CLASSIFICATION_TYPE":"U","RA_OF_ASC_NODE":"337.1291","DECAY_DATE":null,"REV_AT_EPOCH":"130","OBJECT_NAME":"STARLINK-3838","ARG_OF_PERICENTER":"80.6956","BSTAR":"0.00070610000000","MEAN_MOTION_DOT":"0.00099509","PERIOD":"91.535","MEAN_ANOMALY":"347.6471","EPHEMERIS_TYPE":"0","SITE":"AFETR","NORAD_CAT_ID":"52352","TLE_LINE1":"1 52352U 22045X   22139.91667824  .00099509  00000-0  70610-3 0  9999","TLE_LINE2":"2 52352  53.2142 337.1291 0001153  80.6956 347.6471 15.73165376  1306","OBJECT_ID":"2022-045X","GP_ID":"203991033","ECCENTRICITY":"0.00011530","FILE":"3453812","INCLINATION":"53.2142","EPOCH":"2022-05-19T22:00:00.999936","SEMIMAJOR_AXIS":"6727.994","MEAN_ELEMENT_THEORY":"SGP4","MEAN_MOTION":"15.73165376","RCS_SIZE":"LARGE","ELEMENT_SET_NO":"999","CENTER_NAME":"EARTH","TIME_SYSTEM":"UTC","COUNTRY_CODE":"US","OBJECT_TYPE":"PAYLOAD","MEAN_MOTION_DDOT":"0.0000000000000","LAUNCH_DATE":"2022-04-29","APOAPSIS":"350.635"},{"APOAPSIS":"350.425","LAUNCH_DATE":"2022-04-29","OBJECT_TYPE":"PAYLOAD","COUNTRY_CODE":"US","MEAN_MOTION_DDOT":"0.0000000000000","ELEMENT_SET_NO":"999","RCS_SIZE":"LARGE","CENTER_NAME":"EARTH","TIME_SYSTEM":"UTC","GP_ID":"203990508","ECCENTRICITY":"0.00010420","SEMIMAJOR_AXIS":"6727.859","MEAN_ELEMENT_THEORY":"SGP4","MEAN_MOTION":"15.73212574","FILE":"3453812","INCLINATION":"53.2144","EPOCH":"2022-05-19T22:00:00.999936","EPHEMERIS_TYPE":"0","OBJECT_ID":"2022-045Y","SITE":"AFETR","NORAD_CAT_ID":"52353","TLE_LINE2":"2 52353  53.2144 337.1319 0001042  88.7647 338.3756 15.73212574  1309","TLE_LINE1":"1 52353U 22045Y   22139.91667824  .00009234  00000-0  70099-4 0  9998","MEAN_MOTION_DOT":"0.00009234","MEAN_ANOMALY":"338.3756","PERIOD":"91.532","OBJECT_NAME":"STARLINK-3807","REV_AT_EPOCH":"130","BSTAR":"0.00007009900000","ARG_OF_PERICENTER":"88.7647","REF_FRAME":"TEME","CLASSIFICATION_TYPE":"U","PERIAPSIS":"349.023","DECAY_DATE":null,"RA_OF_ASC_NODE":"337.1319"},{"ECCENTRICITY":"0.00011790","GP_ID":"203991131","MEAN_MOTION":"15.73183903","SEMIMAJOR_AXIS":"6727.941","MEAN_ELEMENT_THEORY":"SGP4","EPOCH":"2022-05-19T22:00:00.999936","INCLINATION":"53.2142","FILE":"3453812","ELEMENT_SET_NO":"999","RCS_SIZE":"LARGE","TIME_SYSTEM":"UTC","CENTER_NAME":"EARTH","OBJECT_TYPE":"PAYLOAD","COUNTRY_CODE":"US","MEAN_MOTION_DDOT":"0.0000000000000","LAUNCH_DATE":"2022-04-29","APOAPSIS":"350.599","CLASSIFICATION_TYPE":"U","PERIAPSIS":"349.013","REF_FRAME":"TEME","DECAY_DATE":null,"RA_OF_ASC_NODE":"337.1243","OBJECT_NAME":"STARLINK-3876","REV_AT_EPOCH":"130","BSTAR":"0.00059616000000","ARG_OF_PERICENTER":"84.9682","MEAN_MOTION_DOT":"0.00083828","MEAN_ANOMALY":"345.7357","PERIOD":"91.534","EPHEMERIS_TYPE":"0","OBJECT_ID":"2022-045Z","TLE_LINE1":"1 52354U 22045Z   22139.91667824  .00083828  00000-0  59616-3 0  9991","TLE_LINE2":"2 52354  53.2142 337.1243 0001179  84.9682 345.7357 15.73183903  1304","NORAD_CAT_ID":"52354","SITE":"AFETR"},{"ELEMENT_SET_NO":"999","RCS_SIZE":"LARGE","TIME_SYSTEM":"UTC","CENTER_NAME":"EARTH","ECCENTRICITY":"0.00011100","GP_ID":"203990937","MEAN_MOTION":"15.73227360","SEMIMAJOR_AXIS":"6727.817","MEAN_ELEMENT_THEORY":"SGP4","EPOCH":"2022-05-19T22:00:00.999936","INCLINATION":"53.2145","FILE":"3453812","LAUNCH_DATE":"2022-04-29","APOAPSIS":"350.429","OBJECT_TYPE":"PAYLOAD","COUNTRY_CODE":"US","MEAN_MOTION_DDOT":"0.0000000000000","OBJECT_NAME":"STARLINK-3877","REV_AT_EPOCH":"130","BSTAR":"0.00009843200000","ARG_OF_PERICENTER":"82.6826","PERIAPSIS":"348.935","CLASSIFICATION_TYPE":"U","REF_FRAME":"TEME","DECAY_DATE":null,"RA_OF_ASC_NODE":"337.1304","EPHEMERIS_TYPE":"0","OBJECT_ID":"2022-045AA","TLE_LINE2":"2 52355  53.2145 337.1304 0001110  82.6826 345.0742 15.73227360  1303","TLE_LINE1":"1 52355U 22045AA  22139.91667824  .00013232  00000-0  98432-4 0  9994","SITE":"AFETR","NORAD_CAT_ID":"52355","MEAN_MOTION_DOT":"0.00013232","MEAN_ANOMALY":"345.0742","PERIOD":"91.532"},{"TIME_SYSTEM":"UTC","CENTER_NAME":"EARTH","RCS_SIZE":"LARGE","ELEMENT_SET_NO":"999","EPOCH":"2022-05-19T22:00:00.999936","INCLINATION":"53.2142","FILE":"3453812","MEAN_MOTION":"15.73226079","SEMIMAJOR_AXIS":"6727.821","MEAN_ELEMENT_THEORY":"SGP4","ECCENTRICITY":"0.00010080","GP_ID":"203990700","LAUNCH_DATE":"2022-04-29","APOAPSIS":"350.364","MEAN_MOTION_DDOT":"0.0000000000000","COUNTRY_CODE":"US","OBJECT_TYPE":"PAYLOAD","BSTAR":"-0.00006157900000","ARG_OF_PERICENTER":"100.8770","REV_AT_EPOCH":"130","OBJECT_NAME":"STARLINK-3801","RA_OF_ASC_NODE":"337.1266","DECAY_DATE":null,"CLASSIFICATION_TYPE":"U","PERIAPSIS":"349.008","REF_FRAME":"TEME","TLE_LINE1":"1 52356U 22045AB  22139.91667824 -.00009262  00000-0 -61579-4 0  9997","TLE_LINE2":"2 52356  53.2142 337.1266 0001008 100.8770 328.6263 15.73226079  1306","SITE":"AFETR","NORAD_CAT_ID":"52356","OBJECT_ID":"2022-045AB","EPHEMERIS_TYPE":"0","PERIOD":"91.532","MEAN_ANOMALY":"328.6263","MEAN_MOTION_DOT":"-0.00009262"},{"NORAD_CAT_ID":"52357","SITE":"AFETR","TLE_LINE1":"1 52357U 22045AC  22139.91667824  .00000017  00000-0  45349-5 0  9993","TLE_LINE2":"2 52357  53.2143 337.1282 0000923  92.5625 336.3807 15.73207065  1301","OBJECT_ID":"2022-045AC","EPHEMERIS_TYPE":"0","PERIOD":"91.533","MEAN_ANOMALY":"336.3807","MEAN_MOTION_DOT":"0.00000017","ARG_OF_PERICENTER":"92.5625","BSTAR":"0.00000453490000","REV_AT_EPOCH":"130","OBJECT_NAME":"STARLINK-3821","RA_OF_ASC_NODE":"337.1282","DECAY_DATE":null,"REF_FRAME":"TEME","CLASSIFICATION_TYPE":"U","PERIAPSIS":"349.119","LAUNCH_DATE":"2022-04-29","APOAPSIS":"350.361","MEAN_MOTION_DDOT":"0.0000000000000","COUNTRY_CODE":"US","OBJECT_TYPE":"PAYLOAD","CENTER_NAME":"EARTH","TIME_SYSTEM":"UTC","RCS_SIZE":"LARGE","ELEMENT_SET_NO":"999","FILE":"3453812","INCLINATION":"53.2143","EPOCH":"2022-05-19T22:00:00.999936","SEMIMAJOR_AXIS":"6727.875","MEAN_ELEMENT_THEORY":"SGP4","MEAN_MOTION":"15.73207065","GP_ID":"203990842","ECCENTRICITY":"0.00009230"},{"MEAN_MOTION_DDOT":"0.0000000000000","COUNTRY_CODE":"US","OBJECT_TYPE":"PAYLOAD","LAUNCH_DATE":"2022-04-29","APOAPSIS":"350.467","INCLINATION":"53.2140","EPOCH":"2022-05-19T22:00:00.999936","FILE":"3453812","MEAN_MOTION":"15.73219531","MEAN_ELEMENT_THEORY":"SGP4","SEMIMAJOR_AXIS":"6727.839","ECCENTRICITY":"0.00011330","GP_ID":"203991181","TIME_SYSTEM":"UTC","CENTER_NAME":"EARTH","RCS_SIZE":"LARGE","ELEMENT_SET_NO":"999","PERIOD":"91.532","MEAN_ANOMALY":"337.1520","MEAN_MOTION_DOT":"0.00028182","TLE_LINE1":"1 52358U 22045AD  22139.91667824  .00028182  00000-0  20437-3 0  9996","TLE_LINE2":"2 52358  53.2140 337.1204 0001133  95.3207 337.1520 15.73219531  1306","SITE":"AFETR","NORAD_CAT_ID":"52358","OBJECT_ID":"2022-045AD","EPHEMERIS_TYPE":"0","RA_OF_ASC_NODE":"337.1204","DECAY_DATE":null,"PERIAPSIS":"348.942","CLASSIFICATION_TYPE":"U","REF_FRAME":"TEME","BSTAR":"0.00020437000000","ARG_OF_PERICENTER":"95.3207","REV_AT_EPOCH":"130","OBJECT_NAME":"STARLINK-3837"},{"CENTER_NAME":"EARTH","TIME_SYSTEM":"UTC","RCS_SIZE":"LARGE","ELEMENT_SET_NO":"999","FILE":"3453812","INCLINATION":"53.2143","EPOCH":"2022-05-19T22:00:00.999936","MEAN_ELEMENT_THEORY":"SGP4","SEMIMAJOR_AXIS":"6728.042","MEAN_MOTION":"15.73148485","GP_ID":"203990605","ECCENTRICITY":"0.00012710","LAUNCH_DATE":"2022-04-29","APOAPSIS":"350.762","MEAN_MOTION_DDOT":"0.0000000000000","COUNTRY_CODE":"US","OBJECT_TYPE":"PAYLOAD","BSTAR":"0.00077720000000","ARG_OF_PERICENTER":"92.0065","REV_AT_EPOCH":"130","OBJECT_NAME":"STARLINK-3853","RA_OF_ASC_NODE":"337.1256","DECAY_DATE":null,"REF_FRAME":"TEME","CLASSIFICATION_TYPE":"U","PERIAPSIS":"349.052","SITE":"AFETR","NORAD_CAT_ID":"52359","TLE_LINE2":"2 52359  53.2143 337.1256 0001271  92.0065 338.1238 15.73148485  1302","TLE_LINE1":"1 52359U 22045AE  22139.91667824  .00109646  00000-0  77720-3 0  9999","OBJECT_ID":"2022-045AE","EPHEMERIS_TYPE":"0","PERIOD":"91.536","MEAN_ANOMALY":"338.1238","MEAN_MOTION_DOT":"0.00109646"},{"BSTAR":"0.00009132200000","ARG_OF_PERICENTER":"91.6199","OBJECT_NAME":"STARLINK-3824","REV_AT_EPOCH":"130","DECAY_DATE":null,"RA_OF_ASC_NODE":"337.1179","REF_FRAME":"TEME","CLASSIFICATION_TYPE":"U","PERIAPSIS":"349.048","OBJECT_ID":"2022-045AF","NORAD_CAT_ID":"52360","SITE":"AFETR","TLE_LINE2":"2 52360  53.2140 337.1179 0000973  91.6199 342.0468 15.73220105  1305","TLE_LINE1":"1 52360U 22045AF  22139.91667824  .00012226  00000-0  91322-4 0  9993","EPHEMERIS_TYPE":"0","MEAN_ANOMALY":"342.0468","PERIOD":"91.532","MEAN_MOTION_DOT":"0.00012226","CENTER_NAME":"EARTH","TIME_SYSTEM":"UTC","ELEMENT_SET_NO":"999","RCS_SIZE":"LARGE","SEMIMAJOR_AXIS":"6727.838","MEAN_ELEMENT_THEORY":"SGP4","MEAN_MOTION":"15.73220105","FILE":"3453812","INCLINATION":"53.2140","EPOCH":"2022-05-19T22:00:00.999936","GP_ID":"203991034","ECCENTRICITY":"0.00009730","LAUNCH_DATE":"2022-04-29","APOAPSIS":"350.357","MEAN_MOTION_DDOT":"0.0000000000000","OBJECT_TYPE":"PAYLOAD","COUNTRY_CODE":"US"}];
